NORAD_CAT_ID,OBJECT_NAME,OBJECT_TYPE,EPOCH,MEAN_MOTION,ECCENTRICITY,INCLINATION,RA_OF_ASC_NODE,ARG_OF_PERICENTER,MEAN_ANOMALY,BSTAR,MEAN_MOTION_DOT,MEAN_MOTION_DDOT,TLE_LINE0,TLE_LINE1,TLE_LINE2,SEMIMAJOR_AXIS,PERIOD,APOGEE,PERIGEE,DECAYED
54811.0,STARLINK-5424,PAYLOAD,2023-05-28 16:56:01,15.08849791,9.07e-05,53.2174,264.8142,87.5504,272.5592,0.0001415,1.966e-05,0.0,0 STARLINK-5424,1 54811U 22175BF  23148.70557345  .00001966  00000-0  14150-3 0  9996,2 54811  53.2174 264.8142 0000907  87.5504 272.5592 15.08849791 24667,6917.85,95.437,540.343,539.088,0.0
54811.0,STARLINK-5424,PAYLOAD,2023-05-29 00:52:57,15.0883879,9.18e-05,53.2173,263.327,104.224,255.8854,0.00016412,2.325e-05,0.0,0 STARLINK-5424,1 54811U 22175BF  23149.03677981  .00002325  00000-0  16412-3 0  9995,2 54811  53.2173 263.3270 0000918 104.2240 255.8854 15.08838790 24716,6917.884,95.438,540.384,539.114,0.0
54811.0,STARLINK-5424,PAYLOAD,2023-05-29 13:36:02,15.08843107,8.55e-05,53.2173,260.9478,93.7223,266.3867,0.00012081,1.636e-05,0.0,0 STARLINK-5424,1 54811U 22175BF  23149.56669753  .00001636  00000-0  12081-3 0  9993,2 54811  53.2173 260.9478 0000855  93.7223 266.3867 15.08843107 26959,6917.871,95.437,540.327,539.144,0.0
54811.0,STARLINK-5424,PAYLOAD,2023-05-29 16:46:48,15.08847467,8.78e-05,53.2173,260.3527,94.5105,265.5987,0.00015149,2.125e-05,0.0,0 STARLINK-5424,1 54811U 22175BF  23149.69917395  .00002125  00000-0  15149-3 0  9997,2 54811  53.2173 260.3527 0000878  94.5105 265.5987 15.08847467 26970,6917.858,95.437,540.33,539.115,0.0
54811.0,STARLINK-5424,PAYLOAD,2023-05-30 07:05:17,15.08840349,9.94e-05,53.217,257.6762,86.4847,273.6259,-1.7249e-05,-5.62e-06,0.0,0 STARLINK-5424,1 54811U 22175BF  23150.29534327 -.00000562  00000-0 -17249-4 0  9994,2 54811  53.2170 257.6762 0000994  86.4847 273.6259 15.08840349 24904,6917.879,95.438,540.432,539.057,0.0
54811.0,STARLINK-5424,PAYLOAD,2023-05-30 11:51:27,15.08840214,8.11e-05,53.217,256.785,83.9238,276.1847,-2.9127e-05,-7.51e-06,0.0,0 STARLINK-5424,1 54811U 22175BF  23150.49406270 -.00000751  00000-0 -29127-4 0  9999,2 54811  53.2170 256.7850 0000811  83.9238 276.1847 15.08840214 27091,6917.88,95.438,540.306,539.184,0.0
54811.0,STARLINK-5424,PAYLOAD,2023-05-30 16:37:36,15.08843487,8.72e-05,53.2173,255.8908,94.9069,265.2023,-2.6464e-06,-3.3e-06,0.0,0 STARLINK-5424,1 54811U 22175BF  23150.69277910 -.00000330  00000-0 -26464-5 0  9993,2 54811  53.2173 255.8908 0000872  94.9069 265.2023 15.08843487 27123,6917.87,95.437,540.338,539.131,0.0
54811.0,STARLINK-5424,PAYLOAD,2023-05-31 10:06:50,15.08840993,8.6e-05,53.2169,252.6213,83.5463,276.5627,6.5016e-05,7.47e-06,0.0,0 STARLINK-5424,1 54811U 22175BF  23151.42141913  .00000747  00000-0  65016-4 0  9993,2 54811  53.2169 252.6213 0000860  83.5463 276.5627 15.08840993 25077,6917.877,95.437,540.337,539.147,0.0
54811.0,STARLINK-5424,PAYLOAD,2023-05-31 13:17:36,15.08847171,8.26e-05,53.2172,252.0256,98.0413,262.0673,5.4084e-05,5.73e-06,0.0,0 STARLINK-5424,1 54811U 22175BF  23151.55389504  .00000573  00000-0  54084-4 0  9997,2 54811  53.2172 252.0256 0000826  98.0413 262.0673 15.08847171 27258,6917.858,95.437,540.295,539.152,0.0
54811.0,STARLINK-5424,PAYLOAD,2023-06-01 09:57:37,15.08837852,9.08e-05,53.2167,248.1601,82.4749,277.6346,9.8505e-05,1.28e-05,0.0,0 STARLINK-5424,1 54811U 22175BF  23152.41502034  .00001280  00000-0  98505-4 0  9990,2 54811  53.2167 248.1601 0000908  82.4749 277.6346 15.08837852 27380,6917.887,95.438,540.38,539.124,0.0
54811.0,STARLINK-5424,PAYLOAD,2023-06-02 12:59:11,15.0883869,9.95e-05,53.2183,243.1093,100.6485,259.4619,3.7823e-06,-2.28e-06,0.0,0 STARLINK-5424,1 54811U 22175BF  23153.54110424 -.00000228  00000-0  37823-5 0  9992,2 54811  53.2183 243.1093 0000995 100.6485 259.4619 15.08838690 25395,6917.884,95.438,540.438,539.061,0.0
54811.0,STARLINK-5424,PAYLOAD,2023-06-03 09:39:13,15.08831359,8.2e-05,53.2168,239.2429,97.1736,262.9349,-7.0985e-05,-1.417e-05,0.0,0 STARLINK-5424,1 54811U 22175BF  23154.40223410 -.00001417  00000-0 -70985-4 0  9995,2 54811  53.2168 239.2429 0000820  97.1736 262.9349 15.08831359 25522,6917.907,95.438,540.339,539.205,0.0
54811.0,STARLINK-5424,PAYLOAD,2023-06-03 12:49:59,15.08829955,8.99e-05,53.2167,238.648,104.2515,255.8577,1.7692e-05,-6e-08,0.0,0 STARLINK-5424,1 54811U 22175BF  23154.53471228 -.00000006  00000-0  17692-4 0  9999,2 54811  53.2167 238.6480 0000899 104.2515 255.8577 15.08829955 27707,6917.911,95.438,540.398,539.154,0.0
54811.0,STARLINK-5424,PAYLOAD,2023-06-03 23:57:41,15.08834286,8.28e-05,53.217,236.5659,94.0363,266.0724,5.1857e-05,5.38e-06,0.0,0 STARLINK-5424,1 54811U 22175BF  23154.99839128  .00000538  00000-0  51857-4 0  9996,2 54811  53.2170 236.5659 0000828  94.0363 266.0724 15.08834286 25614,6917.898,95.438,540.336,539.19,0.0
54811.0,STARLINK-5424,PAYLOAD,2023-06-04 12:40:45,15.08840125,8.1e-05,53.2168,234.1864,87.0405,273.068,9.9577e-05,1.297e-05,0.0,0 STARLINK-5424,1 54811U 22175BF  23155.52830773  .00001297  00000-0  99577-4 0  9997,2 54811  53.2168 234.1864 0000810  87.0405 273.0680 15.08840125 27859,6917.88,95.438,540.305,539.185,0.0
54811.0,STARLINK-5424,PAYLOAD,2023-06-05 04:34:36,15.08839947,8.37e-05,53.2168,231.2126,87.2916,272.8172,0.00017966,2.573e-05,0.0,0 STARLINK-5424,1 54811U 22175BF  23156.19070566  .00002573  00000-0  17966-3 0  9996,2 54811  53.2168 231.2126 0000837  87.2916 272.8172 15.08839947 25790,6917.881,95.438,540.325,539.167,0.0
54811.0,STARLINK-5424,PAYLOAD,2023-06-05 12:31:32,15.08847351,8.45e-05,53.2168,229.7256,85.9884,274.1205,0.00018195,2.61e-05,0.0,0 STARLINK-5424,1 54811U 22175BF  23156.52190148  .00002610  00000-0  18195-3 0  9999,2 54811  53.2168 229.7256 0000845  85.9884 274.1205 15.08847351 28001,6917.858,95.437,540.307,539.138,0.0
54811.0,STARLINK-5424,PAYLOAD,2023-06-06 10:46:56,15.08840849,9.05e-05,53.2174,225.563,78.8837,281.2257,4.5592e-05,4.38e-06,0.0,0 STARLINK-5424,1 54811U 22175BF  23157.44926917  .00000438  00000-0  45592-4 0  9990,2 54811  53.2174 225.5630 0000905  78.8837 281.2257 15.08840849 28140,6917.878,95.438,540.369,539.117,0.0
54811.0,STARLINK-5424,PAYLOAD,2023-06-06 12:22:19,15.08844469,9.49e-05,53.217,225.2655,80.6863,279.4237,2.8693e-05,1.69e-06,0.0,0 STARLINK-5424,1 54811U 22175BF  23157.51550739  .00000169  00000-0  28693-4 0  9997,2 54811  53.2170 225.2655 0000949  80.6863 279.4237 15.08844469 25997,6917.867,95.437,540.388,539.075,0.0
54811.0,STARLINK-5424,PAYLOAD,2023-06-07 09:02:20,15.0884473,9.92e-05,53.217,221.4011,78.2305,281.8798,2.101e-06,-2.54e-06,0.0,0 STARLINK-5424,1 54811U 22175BF  23158.37662655 -.00000254  00000-0  21010-5 0  9996,2 54811  53.2170 221.4011 0000992  78.2305 281.8798 15.08844730 28288,6917.866,95.437,540.417,539.045,0.0
54811.0,STARLINK-5424,PAYLOAD,2023-06-07 21:45:25,15.08834874,0.0001045,53.2168,219.0222,82.1854,277.9257,0.00017994,2.577e-05,0.0,0 STARLINK-5424,1 54811U 22175BF  23158.90654832  .00002577  00000-0  17994-3 0  9996,2 54811  53.2168 219.0222 0001045  82.1854 277.9257 15.08834874 28368,6917.896,95.438,540.484,539.038,0.0
54811.0,STARLINK-5424,PAYLOAD,2023-06-08 10:28:30,15.0883905,0.0001102,53.2166,216.6431,77.1889,282.9227,5.6367e-05,6.09e-06,0.0,0 STARLINK-5424,1 54811U 22175BF  23159.43646809  .00000609  00000-0  56367-4 0  9992,2 54811  53.2166 216.6431 0001102  77.1889 282.9227 15.08839050 28440,6917.883,95.438,540.511,538.986,0.0
54811.0,STARLINK-5424,PAYLOAD,2023-06-08 23:11:36,15.08829311,9.96e-05,53.2167,214.2644,88.2544,271.8562,0.00023818,3.504e-05,0.0,0 STARLINK-5424,1 54811U 22175BF  23159.96639032  .00003504  00000-0  23818-3 0  9991,2 54811  53.2167 214.2644 0000996  88.2544 271.8562 15.08829311 26369,6917.913,95.438,540.467,539.089,0.0
54811.0,STARLINK-5424,PAYLOAD,2023-06-09 10:19:17,15.08848851,0.0001094,53.2167,212.1821,81.6754,278.4362,-5.2469e-05,-1.123e-05,0.0,0 STARLINK-5424,1 54811U 22175BF  23160.43006345 -.00001123  00000-0 -52469-4 0  9992,2 54811  53.2167 212.1821 0001094  81.6754 278.4362 15.08848851 26432,6917.853,95.437,540.475,538.962,0.0
54811.0,STARLINK-5424,PAYLOAD,2023-06-09 19:51:36,15.08837248,0.0001025,53.2165,210.3981,84.9825,275.1284,2.2811e-05,7.5e-07,0.0,0 STARLINK-5424,1 54811U 22175BF  23160.82751007  .00000075  00000-0  22811-4 0  9998,2 54811  53.2165 210.3981 0001025  84.9825 275.1284 15.08837248 28657,6917.889,95.438,540.463,539.045,0.0
54811.0,STARLINK-5424,PAYLOAD,2023-06-10 03:48:35,15.0880454,9.21e-05,53.2159,208.9086,80.5916,279.518,-0.00022903,-3.927e-05,0.0,0 STARLINK-5424,1 54811U 22175BF  23161.15874091 -.00003927  00000-0 -22903-3 0  9996,2 54811  53.2159 208.9086 0000921  80.5916 279.5180 15.08804540 26544,6917.989,95.44,540.491,539.217,0.0
54811.0,STARLINK-5424,PAYLOAD,2023-06-10 13:20:54,15.08805037,9.62e-05,53.2164,207.1262,80.977,279.1331,-0.00021106,-3.642e-05,0.0,0 STARLINK-5424,1 54811U 22175BF  23161.55618813 -.00003642  00000-0 -21106-3 0  9996,2 54811  53.2164 207.1262 0000962  80.9770 279.1331 15.08805037 28766,6917.987,95.44,540.518,539.187,0.0
54811.0,STARLINK-5424,PAYLOAD,2023-06-10 19:42:26,15.08819698,0.0001078,53.218,205.9422,102.5384,257.5729,-9.0491e-05,-1.727e-05,0.0,0 STARLINK-5424,1 54811U 22175BF  23161.82113929 -.00001727  00000-0 -90491-4 0  9990,2 54811  53.2180 205.9422 0001078 102.5384 257.5729 15.08819698 28803,6917.942,95.439,540.553,539.062,0.0
54811.0,STARLINK-5424,PAYLOAD,2023-06-11 19:33:11,15.08844763,0.0001017,53.2155,201.4744,58.7215,301.3877,0.00015527,2.185e-05,0.0,0 STARLINK-5424,1 54811U 22175BF  23162.81472059  .00002185  00000-0  15527-3 0  9995,2 54811  53.2155 201.4744 0001017  58.7215 301.3877 15.08844763 28950,6917.866,95.437,540.434,539.027,0.0
54811.0,STARLINK-5424,PAYLOAD,2023-06-12 11:27:03,15.08839218,0.0001059,53.2162,198.5017,58.1248,301.9847,0.0004182,6.374e-05,0.0,0 STARLINK-5424,1 54811U 22175BF  23163.47711944  .00006374  00000-0  41820-3 0  9996,2 54811  53.2162 198.5017 0001059  58.1248 301.9847 15.08839218 29057,6917.883,95.438,540.48,539.015,0.0
